{
  "type": "FeatureCollection",
  "features": [
    {
      "type": "Feature",
      "properties": {
        "norad_id": 34350,
        "name": "IRIDIUM 33 DEB",
        "group": "iridium-33-debris",
        "lat": -0.31560627928118445,
        "lon": 3.633298989078907,
        "alt_km": 756.4595041994971,
        "timestamp": "2025-12-10T18:57:00.450289+00:00",
        "meta_object_name": "IRIDIUM 33 DEB",
        "meta_object_id": "1997-051ES",
        "meta_epoch": "2025-12-10T12:52:02.616960",
        "meta_mean_motion": 14.45379057,
        "meta_eccentricity": 0.0022625,
        "meta_inclination": 86.3276,
        "meta_ra_of_asc_node": 3.7635,
        "meta_arg_of_pericenter": 142.0341,
        "meta_mean_anomaly": 339.995,
        "meta_ephemeris_type": 0,
        "meta_classification_type": "U",
        "meta_norad_cat_id": 34350,
        "meta_element_set_no": 999,
        "meta_rev_at_epoch": 88261,
        "meta_bstar": 0.00047544,
        "meta_mean_motion_dot": 1.696e-05,
        "meta_mean_motion_ddot": 0,
        "tle_line1": "1 34350U 97051ES  25344.53614140  .00001696  00000+0  47544-3 0  9997",
        "tle_line2": "2 34350  86.3276   3.7635 0022625 142.0341 339.9950 14.45379057882613"
      },
      "geometry": {
        "type": "Point",
        "coordinates": [
          3.633298989078907,
          -0.31560627928118445
        ]
      }
    },
    {
      "type": "Feature",
      "properties": {
        "norad_id": 34366,
        "name": "IRIDIUM 33 DEB",
        "group": "iridium-33-debris",
        "lat": -85.54824936968501,
        "lon": -75.19227812451483,
        "alt_km": 728.2747102139765,
        "timestamp": "2025-12-10T18:57:00.450299+00:00",
        "meta_object_name": "IRIDIUM 33 DEB",
        "meta_object_id": "1997-051FJ",
        "meta_epoch": "2025-12-10T04:47:12.333120",
        "meta_mean_motion": 14.54021911,
        "meta_eccentricity": 0.0022308,
        "meta_inclination": 86.3691,
        "meta_ra_of_asc_node": 50.4179,
        "meta_arg_of_pericenter": 147.6537,
        "meta_mean_anomaly": 272.451,
        "meta_ephemeris_type": 0,
        "meta_classification_type": "U",
        "meta_norad_cat_id": 34366,
        "meta_element_set_no": 999,
        "meta_rev_at_epoch": 88145,
        "meta_bstar": 0.0016468,
        "meta_mean_motion_dot": 6.988e-05,
        "meta_mean_motion_ddot": 0,
        "tle_line1": "1 34366U 97051FJ  25344.19944830  .00006988  00000+0  16468-2 0  9997",
        "tle_line2": "2 34366  86.3691  50.4179 0022308 147.6537 272.4510 14.54021911881456"
      },
      "geometry": {
        "type": "Point",
        "coordinates": [
          -75.19227812451483,
          -85.54824936968501
        ]
      }
    },
    {
      "type": "Feature",
      "properties": {
        "norad_id": 34375,
        "name": "IRIDIUM 33 DEB",
        "group": "iridium-33-debris",
        "lat": 73.69534969861346,
        "lon": -164.20234393715953,
        "alt_km": 786.0265928587714,
        "timestamp": "2025-12-10T18:57:00.450310+00:00",
        "meta_object_name": "IRIDIUM 33 DEB",
        "meta_object_id": "1997-051FT",
        "meta_epoch": "2025-12-10T07:35:27.786048",
        "meta_mean_motion": 14.17985501,
        "meta_eccentricity": 0.0103124,
        "meta_inclination": 86.4328,
        "meta_ra_of_asc_node": 183.6751,
        "meta_arg_of_pericenter": 134.3251,
        "meta_mean_anomaly": 46.2443,
        "meta_ephemeris_type": 0,
        "meta_classification_type": "U",
        "meta_norad_cat_id": 34375,
        "meta_element_set_no": 999,
        "meta_rev_at_epoch": 86677,
        "meta_bstar": 0.00060254,
        "meta_mean_motion_dot": 1.319e-05,
        "meta_mean_motion_ddot": 0,
        "tle_line1": "1 34375U 97051FT  25344.31629382  .00001319  00000+0  60254-3 0  9999",
        "tle_line2": "2 34375  86.4328 183.6751 0103124 134.3251  46.2443 14.17985501866774"
      },
      "geometry": {
        "type": "Point",
        "coordinates": [
          -164.20234393715953,
          73.69534969861346
        ]
      }
    },
    {
      "type": "Feature",
      "properties": {
        "norad_id": 34376,
        "name": "IRIDIUM 33 DEB",
        "group": "iridium-33-debris",
        "lat": 44.88822713484666,
        "lon": -176.28042447986618,
        "alt_km": 666.351655175552,
        "timestamp": "2025-12-10T18:57:00.450320+00:00",
        "meta_object_name": "IRIDIUM 33 DEB",
        "meta_object_id": "1997-051FU",
        "meta_epoch": "2025-12-10T11:45:58.662720",
        "meta_mean_motion": 14.62514696,
        "meta_eccentricity": 0.0026927,
        "meta_inclination": 86.2989,
        "meta_ra_of_asc_node": 7.5509,
        "meta_arg_of_pericenter": 174.2059,
        "meta_mean_anomaly": 185.9469,
        "meta_ephemeris_type": 0,
        "meta_classification_type": "U",
        "meta_norad_cat_id": 34376,
        "meta_element_set_no": 999,
        "meta_rev_at_epoch": 87974,
        "meta_bstar": 0.0021548,
        "meta_mean_motion_dot": 0.0001101,
        "meta_mean_motion_ddot": 0,
        "tle_line1": "1 34376U 97051FU  25344.49026230  .00011010  00000+0  21548-2 0  9993",
        "tle_line2": "2 34376  86.2989   7.5509 0026927 174.2059 185.9469 14.62514696879748"
      },
      "geometry": {
        "type": "Point",
        "coordinates": [
          -176.28042447986618,
          44.88822713484666
        ]
      }
    },
    {
      "type": "Feature",
      "properties": {
        "norad_id": 34486,
        "name": "IRIDIUM 33 DEB",
        "group": "iridium-33-debris",
        "lat": 60.685567763384206,
        "lon": -173.52438066150125,
        "alt_km": 565.1757449004936,
        "timestamp": "2025-12-10T18:57:00.450330+00:00",
        "meta_object_name": "IRIDIUM 33 DEB",
        "meta_object_id": "1997-051GB",
        "meta_epoch": "2025-12-10T12:34:52.075776",
        "meta_mean_motion": 14.95631974,
        "meta_eccentricity": 0.001349,
        "meta_inclination": 86.3938,
        "meta_ra_of_asc_node": 13.0469,
        "meta_arg_of_pericenter": 119.9859,
        "meta_mean_anomaly": 11.1663,
        "meta_ephemeris_type": 0,
        "meta_classification_type": "U",
        "meta_norad_cat_id": 34486,
        "meta_element_set_no": 999,
        "meta_rev_at_epoch": 88953,
        "meta_bstar": 0.003193,
        "meta_mean_motion_dot": 0.00035691,
        "meta_mean_motion_ddot": 0,
        "tle_line1": "1 34486U 97051GB  25344.52421384  .00035691  00000+0  31930-2 0  9995",
        "tle_line2": "2 34486  86.3938  13.0469 0013490 119.9859  11.1663 14.95631974889536"
      },
      "geometry": {
        "type": "Point",
        "coordinates": [
          -173.52438066150125,
          60.685567763384206
        ]
      }
    },
    {
      "type": "Feature",
      "properties": {
        "norad_id": 34487,
        "name": "IRIDIUM 33 DEB",
        "group": "iridium-33-debris",
        "lat": 37.19633776275575,
        "lon": -169.56460651166947,
        "alt_km": 722.3469448827445,
        "timestamp": "2025-12-10T18:57:00.450340+00:00",
        "meta_object_name": "IRIDIUM 33 DEB",
        "meta_object_id": "1997-051GC",
        "meta_epoch": "2025-12-10T01:47:16.386144",
        "meta_mean_motion": 14.4321077,
        "meta_eccentricity": 0.00325626,
        "meta_inclination": 86.3436,
        "meta_ra_of_asc_node": 13.5248,
        "meta_arg_of_pericenter": 136.7627,
        "meta_mean_anomaly": 252.8644,
        "meta_ephemeris_type": 0,
        "meta_classification_type": "U",
        "meta_norad_cat_id": 34487,
        "meta_element_set_no": 999,
        "meta_rev_at_epoch": 88210,
        "meta_bstar": 0.00027422216,
        "meta_mean_motion_dot": 9.48e-06,
        "meta_mean_motion_ddot": 0,
        "tle_line1": "1 34487U 97051GC  25344.07449521  .00000948  00000+0  27422-3 0  9998",
        "tle_line2": "2 34487  86.3436  13.5248 0032562 136.7627 252.8644 14.43210770882100"
      },
      "geometry": {
        "type": "Point",
        "coordinates": [
          -169.56460651166947,
          37.19633776275575
        ]
      }
    },
    {
      "type": "Feature",
      "properties": {
        "norad_id": 34488,
        "name": "IRIDIUM 33 DEB",
        "group": "iridium-33-debris",
        "lat": -48.80431975148284,
        "lon": 130.9907236049498,
        "alt_km": 496.37376062531894,
        "timestamp": "2025-12-10T18:57:00.450350+00:00",
        "meta_object_name": "IRIDIUM 33 DEB",
        "meta_object_id": "1997-051GD",
        "meta_epoch": "2025-12-10T08:31:31.497024",
        "meta_mean_motion": 15.28485636,
        "meta_eccentricity": 0.0013917,
        "meta_inclination": 86.3244,
        "meta_ra_of_asc_node": 306.9938,
        "meta_arg_of_pericenter": 55.6103,
        "meta_mean_anomaly": 304.6458,
        "meta_ephemeris_type": 0,
        "meta_classification_type": "U",
        "meta_norad_cat_id": 34488,
        "meta_element_set_no": 999,
        "meta_rev_at_epoch": 89203,
        "meta_bstar": 0.0064311,
        "meta_mean_motion_dot": 0.00182742,
        "meta_mean_motion_ddot": 0,
        "tle_line1": "1 34488U 97051GD  25344.35522566  .00182742  00000+0  64311-2 0  9991",
        "tle_line2": "2 34488  86.3244 306.9938 0013917  55.6103 304.6458 15.28485636892035"
      },
      "geometry": {
        "type": "Point",
        "coordinates": [
          130.9907236049498,
          -48.80431975148284
        ]
      }
    }
  ]
}